{"fetched_at":"2026-07-18T17:29:55.985Z","source":"https://celestrak.org/NORAD/elements/gp.php?NAME=HAWK&FORMAT=JSON","constellation":"hawkeye-360","records":[{"OBJECT_NAME":"HAWK-12A","OBJECT_ID":"2025-138C","EPOCH":"2026-07-18T06:44:24.111168","CLASSIFICATION_TYPE":"U","MEAN_MOTION":15.18416116,"ECCENTRICITY":0.00148315,"INCLINATION":97.4414,"RA_OF_ASC_NODE":201.5493,"ARG_OF_PERICENTER":36.6514,"MEAN_ANOMALY":323.5732,"EPHEMERIS_TYPE":0,"NORAD_CAT_ID":64623,"ELEMENT_SET_NO":999,"REV_AT_EPOCH":5858,"BSTAR":0.00010816041,"MEAN_MOTION_DOT":0.00002163,"MEAN_MOTION_DDOT":0},{"OBJECT_NAME":"HAWK-13A","OBJECT_ID":"2026-004AF","EPOCH":"2026-07-17T22:51:54.512064","CLASSIFICATION_TYPE":"U","MEAN_MOTION":15.19370883,"ECCENTRICITY":0.00044111,"INCLINATION":97.4448,"RA_OF_ASC_NODE":197.3875,"ARG_OF_PERICENTER":206.9655,"MEAN_ANOMALY":153.1351,"EPHEMERIS_TYPE":0,"NORAD_CAT_ID":67392,"ELEMENT_SET_NO":999,"REV_AT_EPOCH":2843,"BSTAR":0.00011028308,"MEAN_MOTION_DOT":0.00002264,"MEAN_MOTION_DDOT":0},{"OBJECT_NAME":"HAWK-13C","OBJECT_ID":"2026-004AG","EPOCH":"2026-07-18T06:45:53.105760","CLASSIFICATION_TYPE":"U","MEAN_MOTION":15.19368404,"ECCENTRICITY":0.00042575,"INCLINATION":97.4595,"RA_OF_ASC_NODE":198.1426,"ARG_OF_PERICENTER":209.2371,"MEAN_ANOMALY":150.8626,"EPHEMERIS_TYPE":0,"NORAD_CAT_ID":67393,"ELEMENT_SET_NO":999,"REV_AT_EPOCH":2848,"BSTAR":0.00010649226,"MEAN_MOTION_DOT":0.00002184,"MEAN_MOTION_DDOT":0},{"OBJECT_NAME":"HAWK-13B","OBJECT_ID":"2026-004AK","EPOCH":"2026-07-18T06:45:45.070560","CLASSIFICATION_TYPE":"U","MEAN_MOTION":15.19370754,"ECCENTRICITY":0.00055095,"INCLINATION":97.4534,"RA_OF_ASC_NODE":197.963,"ARG_OF_PERICENTER":211.1425,"MEAN_ANOMALY":148.9484,"EPHEMERIS_TYPE":0,"NORAD_CAT_ID":67396,"ELEMENT_SET_NO":999,"REV_AT_EPOCH":2848,"BSTAR":0.00010582348,"MEAN_MOTION_DOT":0.0000217,"MEAN_MOTION_DDOT":0},{"OBJECT_NAME":"HAWK-14B","OBJECT_ID":"2026-067W","EPOCH":"2026-07-18T04:33:25.008192","CLASSIFICATION_TYPE":"U","MEAN_MOTION":15.18444303,"ECCENTRICITY":0.00012217,"INCLINATION":97.4566,"RA_OF_ASC_NODE":157.2001,"ARG_OF_PERICENTER":347.2982,"MEAN_ANOMALY":12.8221,"EPHEMERIS_TYPE":0,"NORAD_CAT_ID":68436,"ELEMENT_SET_NO":999,"REV_AT_EPOCH":1664,"BSTAR":0.00010259372,"MEAN_MOTION_DOT":0.00002045,"MEAN_MOTION_DDOT":0},{"OBJECT_NAME":"HAWK-14C","OBJECT_ID":"2026-067AB","EPOCH":"2026-07-18T02:58:40.445472","CLASSIFICATION_TYPE":"U","MEAN_MOTION":15.18442253,"ECCENTRICITY":0.00022904,"INCLINATION":97.4504,"RA_OF_ASC_NODE":157.0132,"ARG_OF_PERICENTER":17.4827,"MEAN_ANOMALY":342.6486,"EPHEMERIS_TYPE":0,"NORAD_CAT_ID":68441,"ELEMENT_SET_NO":999,"REV_AT_EPOCH":1663,"BSTAR":0.00010761586,"MEAN_MOTION_DOT":0.00002148,"MEAN_MOTION_DDOT":0},{"OBJECT_NAME":"HAWK-14A","OBJECT_ID":"2026-067AJ","EPOCH":"2026-07-18T04:33:43.908192","CLASSIFICATION_TYPE":"U","MEAN_MOTION":15.18445819,"ECCENTRICITY":0.00029231,"INCLINATION":97.4628,"RA_OF_ASC_NODE":157.329,"ARG_OF_PERICENTER":6.4967,"MEAN_ANOMALY":353.6304,"EPHEMERIS_TYPE":0,"NORAD_CAT_ID":68448,"ELEMENT_SET_NO":999,"REV_AT_EPOCH":1664,"BSTAR":0.00010379229,"MEAN_MOTION_DOT":0.0000207,"MEAN_MOTION_DDOT":0}]}
