HAWK-12A                
1 64623U 25138C   26199.28083462  .00002163  00000+0  10816-3 0  9990
2 64623  97.4414 201.5493 0014831  36.6514 323.5732 15.18416116 58583
HAWK-13A                
1 67392U 26004AF  26198.95271426  .00002264  00000+0  11028-3 0  9999
2 67392  97.4448 197.3875 0004411 206.9655 153.1351 15.19370883 28439
HAWK-13C                
1 67393U 26004AG  26199.28186465  .00002184  00000+0  10649-3 0  9994
2 67393  97.4595 198.1426 0004257 209.2371 150.8626 15.19368404 28483
HAWK-13B                
1 67396U 26004AK  26199.28177165  .00002170  00000+0  10582-3 0  9995
2 67396  97.4534 197.9630 0005509 211.1425 148.9484 15.19370754 28487
HAWK-14B                
1 68436U 26067W   26199.18987278  .00002045  00000+0  10259-3 0  9995
2 68436  97.4566 157.2001 0001221 347.2982  12.8221 15.18444303 16649
HAWK-14C                
1 68441U 26067AB  26199.12407923  .00002148  00000+0  10762-3 0  9992
2 68441  97.4504 157.0132 0002290  17.4827 342.6486 15.18442253 16639
HAWK-14A                
1 68448U 26067AJ  26199.19009153  .00002070  00000+0  10379-3 0  9997
2 68448  97.4628 157.3290 0002923   6.4967 353.6304 15.18445819 16640
